IXPE                    
1 49954U 21121A   24062.58334491  .00004492  00000+0  31401-3 0  9999
2 49954   0.2301 103.1932 0010062 140.8870 353.1239 14.96697863  5892
